NORAD_CAT_ID,OBJECT_NAME,OBJECT_TYPE,EPOCH,MEAN_MOTION,ECCENTRICITY,INCLINATION,RA_OF_ASC_NODE,ARG_OF_PERICENTER,MEAN_ANOMALY,BSTAR,MEAN_MOTION_DOT,MEAN_MOTION_DDOT,TLE_LINE0,TLE_LINE1,TLE_LINE2,SEMIMAJOR_AXIS,PERIOD,APOGEE,PERIGEE,DECAYED
53425.0,STARLINK-4531,PAYLOAD,2022-09-14 22:00:00,15.72797475,0.0001406,53.2173,71.2494,57.1244,69.1216,-0.0081208,-0.01012455,0.0,0 STARLINK-4531,1 53425U 22097AP  22257.91667824 -.01012455  00000-0 -81208-2 0  9991,2 53425  53.2173  71.2494 0001406  57.1244  69.1216 15.72797475  1306,6729.043000000002,91.557,351.85400000000016,349.962,0.0
53425.0,STARLINK-4531,PAYLOAD,2022-09-15 14:00:01,15.7133682,0.0001104,53.2176,67.9579,63.4203,237.9071,-0.0093642,-0.01087956,0.0,0 STARLINK-4531,1 53425U 22097AP  22258.58334491 -.01087956  00000-0 -93642-2 0  9999,2 53425  53.2176  67.9579 0001104  63.4203 237.9071 15.71336820  1301,6733.212,91.642,355.821,354.334,0.0
53425.0,STARLINK-4531,PAYLOAD,2022-09-15 22:00:00,15.70544856,0.0001149999999999,53.2174,66.3168,54.8249,332.7077,-0.0093054,-0.0104973,0.0,0 STARLINK-4531,1 53425U 22097AP  22258.91667824 -.01049730  00000-0 -93054-2 0  9990,2 53425  53.2174  66.3168 0001150  54.8249 332.7077 15.70544856  1300,6735.476,91.688,358.115,356.566,0.0
53425.0,STARLINK-4531,PAYLOAD,2022-09-16 02:00:01,15.70173602,0.0001408,53.217,65.4963,46.3651,203.9154,-0.0095872,-0.01063314,0.0,0 STARLINK-4531,1 53425U 22097AP  22259.08334491 -.01063314  00000-0 -95872-2 0  9994,2 53425  53.2170  65.4963 0001408  46.3651 203.9154 15.70173602  6237,6736.5369999999975,91.71,359.351,357.454,0.0
53425.0,STARLINK-4531,PAYLOAD,2022-09-16 14:00:01,15.69064665,0.0001309,53.2174,63.0378,62.6232,134.5217,-0.010386,-0.01095812,0.0,0 STARLINK-4531,1 53425U 22097AP  22259.58334491 -.01095812  00000-0 -10386-1 0  9993,2 53425  53.2174  63.0378 0001309  62.6232 134.5217 15.69064665  1309,6739.7109999999975,91.774,362.458,360.694,0.0
53425.0,STARLINK-4531,PAYLOAD,2022-09-16 22:00:00,15.68265561,0.0001184,53.2174,61.4034,60.4724,220.1417,-0.0102069999999999,-0.01047182,0.0,0 STARLINK-4531,1 53425U 22097AP  22259.91667824 -.01047182  00000-0 -10207-1 0  9998,2 53425  53.2174  61.4034 0001184  60.4724 220.1417 15.68265561  1304,6742.0,91.821,364.664,363.067,0.0
53425.0,STARLINK-4531,PAYLOAD,2022-09-17 14:00:01,15.6674916,0.0001457,53.2178,58.1358,42.0699,42.7019,-0.010911,-0.01051443,0.0,0 STARLINK-4531,1 53425U 22097AP  22260.58334491 -.01051443  00000-0 -10911-1 0  9991,2 53425  53.2178  58.1358 0001457  42.0699  42.7019 15.66749160  1306,6746.35,91.91,369.198,367.232,0.0
53425.0,STARLINK-4531,PAYLOAD,2022-09-17 22:00:00,15.65985431,0.0001409999999999,53.2174,56.5066,51.2146,114.2678,-0.011164,-0.01043764,0.0,0 STARLINK-4531,1 53425U 22097AP  22260.91667824 -.01043764  00000-0 -11164-1 0  9995,2 53425  53.2174  56.5066 0001410  51.2146 114.2678 15.65985431  1306,6748.543000000002,91.955,371.36,369.457,0.0
53425.0,STARLINK-4531,PAYLOAD,2022-09-18 14:00:01,15.64471159,0.0001511,53.2176,53.2501,36.3075,287.9206,-0.011961,-0.01051299,0.0,0 STARLINK-4531,1 53425U 22097AP  22261.58335648 -.01051299  00000-0 -11961-1 0  9992,2 53425  53.2176  53.2501 0001511  36.3075 287.9206 15.64471159  6624,6752.897,92.044,375.782,373.742,0.0
53425.0,STARLINK-4531,PAYLOAD,2022-09-18 22:00:00,15.63710016,0.0001273,53.2171,51.6265,46.0499,356.0846,-0.012283,-0.01047638,0.0,0 STARLINK-4531,1 53425U 22097AP  22261.91667824 -.01047638  00000-0 -12283-1 0  9993,2 53425  53.2171  51.6265 0001273  46.0499 356.0846 15.63710016  1306,6755.0880000000025,92.089,377.81300000000016,376.093,0.0
53425.0,STARLINK-4531,PAYLOAD,2022-09-19 14:00:01,15.621892,0.0001688,53.2175,48.3813,40.4217,154.9199,-0.013003,-0.01061046,0.0,0 STARLINK-4531,1 53425U 22097AP  22262.58334491 -.01061046  00000-0 -13003-1 0  9998,2 53425  53.2175  48.3813 0001688  40.4217 154.9199 15.62189200  6785,6759.472,92.178,382.478,380.196,0.0
53425.0,STARLINK-4531,PAYLOAD,2022-09-19 22:00:00,15.61431763,0.0001468,53.2173,46.7627,42.4073,228.1667,-0.013427,-0.0106337999999999,0.0,0 STARLINK-4531,1 53425U 22097AP  22262.91667824 -.01063380  00000-0 -13427-1 0  9997,2 53425  53.2173  46.7627 0001468  42.4073 228.1667 15.61431763  1306,6761.656999999997,92.223,384.515,382.53,0.0
53425.0,STARLINK-4531,PAYLOAD,2022-09-20 06:00:00,15.60670542,0.0001588999999999,53.2175,45.1433,30.3674,314.5299,-0.013807,-0.01061807,0.0,0 STARLINK-4531,1 53425U 22097AP  22263.25001157 -.01061807  00000-0 -13807-1 0  9990,2 53425  53.2175  45.1433 0001589  30.3674 314.5299 15.60670542  6881,6763.856,92.268,386.796,384.646,0.0
53425.0,STARLINK-4531,PAYLOAD,2022-09-20 14:00:01,15.59912802,0.0001869,53.2176,43.529,27.3958,30.9085,-0.014249,-0.01064083,0.0,0 STARLINK-4531,1 53425U 22097AP  22263.58334491 -.01064083  00000-0 -14249-1 0  9996,2 53425  53.2176  43.5290 0001869  27.3958  30.9085 15.59912802  1307,6766.045999999999,92.313,389.176,386.647,0.0
53425.0,STARLINK-4531,PAYLOAD,2022-09-20 22:00:01,15.59152928,0.0001605,53.2172,41.9156,40.2758,90.5891,-0.014653,-0.01062837,0.0,0 STARLINK-4531,1 53425U 22097AP  22263.91668981 -.01062837  00000-0 -14653-1 0  9991,2 53425  53.2172  41.9156 0001605  40.2758  90.5891 15.59152928  6998,6768.244000000002,92.358,391.196,389.023,0.0
53425.0,STARLINK-4531,PAYLOAD,2022-09-21 22:00:00,15.56875665,0.0001503,53.2172,37.0853,35.3507,307.46,-0.015987,-0.0106357999999999,0.0,0 STARLINK-4531,1 53425U 22097AP  22264.91667824 -.01063580  00000-0 -15987-1 0  9994,2 53425  53.2172  37.0853 0001503  35.3507 307.4600 15.56875665  1307,6774.843000000003,92.493,397.726,395.69,0.0
53425.0,STARLINK-4531,PAYLOAD,2022-09-22 14:00:01,15.55390582,0.0001513,53.2176,33.8716,29.2454,90.3286,-0.017719,-0.01110361,0.0,0 STARLINK-4531,1 53425U 22097AP  22265.58334491 -.01110361  00000-0 -17719-1 0  9994,2 53425  53.2176  33.8716 0001513  29.2454  90.3286 15.55390582  1304,6779.154,92.581,402.045,399.994,0.0
53425.0,STARLINK-4531,PAYLOAD,2022-09-22 22:00:00,15.54596323,0.0001703,53.2173,32.2711,39.5938,147.0153,-0.017387,-0.01062733,0.0,0 STARLINK-4531,1 53425U 22097AP  22265.91667824 -.01062733  00000-0 -17387-1 0  9990,2 53425  53.2173  32.2711 0001703  39.5938 147.0153 15.54596323  7300,6781.4630000000025,92.629,404.483,402.173,0.0
53425.0,STARLINK-4531,PAYLOAD,2022-09-23 14:00:01,15.53076112,0.0001682,53.2175,29.0709,33.8332,284.0779,-0.018333,-0.01060011,0.0,0 STARLINK-4531,1 53425U 22097AP  22266.58334491 -.01060011  00000-0 -18333-1 0  9994,2 53425  53.2175  29.0709 0001682  33.8332 284.0779 15.53076112  1302,6785.888000000001,92.719,408.894,406.612,0.0
53425.0,STARLINK-4531,PAYLOAD,2022-09-23 22:00:00,15.52317629,0.0001646,53.2172,27.4735,31.9644,350.2282,-0.018868,-0.01061129,0.0,0 STARLINK-4531,1 53425U 22097AP  22266.91667824 -.01061129  00000-0 -18868-1 0  9994,2 53425  53.2172  27.4735 0001646  31.9644 350.2282 15.52317629  7463,6788.098000000001,92.765,411.08,408.846,0.0
53425.0,STARLINK-4531,PAYLOAD,2022-09-24 14:00:01,15.50694486,0.0001669,53.2173,24.2835,35.9803,112.1232,-0.014656,-0.00787243,0.0,0 STARLINK-4531,1 53425U 22097AP  22267.58335648 -.00787243  00000-0 -14656-1 0  9996,2 53425  53.2173  24.2835 0001669  35.9803 112.1232 15.50694486  1300,6792.834,92.862,415.833,413.565,0.0
53425.0,STARLINK-4531,PAYLOAD,2022-09-24 22:00:00,15.50022991,0.0001351999999999,53.2171,22.69,48.9689,160.6203,-0.0038082,-0.00211879,0.0,0 STARLINK-4531,1 53425U 22097AP  22267.91667824 -.00211879  00000-0 -38082-2 0  9994,2 53425  53.2171  22.6900 0001352  48.9689 160.6203 15.50022991  1300,6794.795999999999,92.902,417.58,415.742,0.0
53425.0,STARLINK-4531,PAYLOAD,2022-09-25 06:00:00,15.49884638,0.0001675999999999,53.2173,21.0938,40.8254,229.7497,7.3432e-06,-3.5e-07,0.0,0 STARLINK-4531,1 53425U 22097AP  22268.25001157 -.00000035  00000-0  73432-5 0  9993,2 53425  53.2173  21.0938 0001676  40.8254 229.7497 15.49884638  7663,6795.2,92.91,418.204,415.926,0.0
53425.0,STARLINK-4531,PAYLOAD,2022-09-25 14:00:01,15.49885755,0.0001779,53.2172,19.504,38.4463,293.0405,-1.2505e-05,-1.161e-05,0.0,0 STARLINK-4531,1 53425U 22097AP  22268.58334491 -.00001161  00000-0 -12505-4 0  9994,2 53425  53.2172  19.5040 0001779  38.4463 293.0405 15.49885755  1306,6795.196999999999,92.91,418.271,415.853,0.0
53425.0,STARLINK-4531,PAYLOAD,2022-09-25 22:00:01,15.49886128,0.0001744,53.2173,17.9105,37.6471,354.8188,-1.7875e-05,-1.466e-05,0.0,0 STARLINK-4531,1 53425U 22097AP  22268.91668981 -.00001466  00000-0 -17875-4 0  9998,2 53425  53.2173  17.9105 0001744  37.6471 354.8188 15.49886128  1302,6795.196,92.91,418.246,415.876,0.0
53425.0,STARLINK-4531,PAYLOAD,2022-09-26 10:00:00,15.49865638,0.0001838,53.2184,15.5114,43.4105,260.3895,-0.00026994,-0.00015731,0.0,0 STARLINK-4531,1 53425U 22097AP  22269.41667824 -.00015731  00000-0 -26994-3 0  9990,2 53425  53.2184  15.5114 0001838  43.4105 260.3895 15.49865638  7845,6795.255999999999,92.911,418.37,415.872,0.0
53425.0,STARLINK-4531,PAYLOAD,2022-09-26 14:00:01,15.49855409,0.0001998,53.2181,14.716,40.2316,114.0122,-1.6311e-05,-1.377e-05,0.0,0 STARLINK-4531,1 53425U 22097AP  22269.58334491 -.00001377  00000-0 -16311-4 0  9993,2 53425  53.2181  14.7160 0001998  40.2316 114.0122 15.49855409  1308,6795.286,92.912,418.508,415.793,0.0
53425.0,STARLINK-4531,PAYLOAD,2022-09-26 22:00:00,15.4984694,0.0001959,53.2175,13.1265,36.8206,178.3061,0.0014380999999999,0.00081918,0.0,0 STARLINK-4531,1 53425U 22097AP  22269.91667824  .00081918  00000-0  14381-2 0  9999,2 53425  53.2175  13.1265 0001959  36.8206 178.3061 15.49846940  7925,6795.31,92.912,418.507,415.844,0.0
53425.0,STARLINK-4531,PAYLOAD,2022-09-27 06:00:00,15.49864007,0.0001869,53.218,11.5284,44.473,231.5458,0.00077656,0.00043837,0.0,0 STARLINK-4531,1 53425U 22097AP  22270.25001157  .00043837  00000-0  77656-3 0  9992,2 53425  53.2180  11.5284 0001869  44.4730 231.5458 15.49864007  7972,6795.261,92.911,418.396,415.856,0.0
